*******************************************************************************
 Revised: Nov 05, 2015             Nix / (Pluto)                            902 

 Fit to all available observations including New Horizons encounter tracking.
*******************************************************************************
 

 

*******************************************************************************
Ephemeris / WWW_USER Thu Dec 26 16:00:35 2019 Pasadena, USA      / Horizons    
*******************************************************************************
Target body name: Nix (902)                       {source: plu055l_merged}
Center body name: Sun (10)                        {source: plu055l_merged}
Center-site name: BODY CENTER
*******************************************************************************
Start time      : A.D. 2019-Dec-26 00:00:00.0000 TDB
Stop  time      : A.D. 2020-Jan-25 00:00:00.0000 TDB
Step-size       : 1440 minutes
*******************************************************************************
Center geodetic : 0.00000000,0.00000000,0.0000000 {E-lon(deg),Lat(deg),Alt(km)}
Center cylindric: 0.00000000,0.00000000,0.0000000 {E-lon(deg),Dxy(km),Dz(km)}
Center radii    : 696000.0 x 696000.0 x 696000.0 k{Equator, meridian, pole}    
Keplerian GM    : 1.3271244004194145E+11 km^3/s^2
Output units    : KM-S, deg                                                    
Output type     : GEOMETRIC osculating elements
Output format   : 10
Reference frame : ICRF/J2000.0                                                 
Coordinate systm: Ecliptic and Mean Equinox of Reference Epoch                 
*******************************************************************************
            JDTDB,            Calendar Date (TDB),                     EC,                     QR,                     IN,                     OM,                      W,                     Tp,                      N,                     MA,                     TA,                      A,                     AD,                     PR,
**************************************************************************************************************************************************************************************************************************************************************************************************************************************************
$$SOE
2458843.500000000, A.D. 2019-Dec-26 00:00:00.0000,  2.308527440055061E-01,  4.374933123024014E+09,  1.600313608448918E+01,  1.101400687180543E+02,  1.075525954885506E+02, -1.040378353441326E+09,  4.865590603261206E-08,  5.062055140340484E+01,  7.484279997257747E+01,  5.688030593526989E+09,  7.001128064029963E+09,  7.398896235920604E+09,
2458844.500000000, A.D. 2019-Dec-27 00:00:00.0000,  2.317331927834109E-01,  4.417187854552037E+09,  1.584481519485052E+01,  1.101157881032537E+02,  1.103558775527814E+02, -1.008537120187075E+09,  4.787709050761692E-08,  4.828582298348793E+01,  7.206801100567614E+01,  5.749549262131207E+09,  7.081910669710376E+09,  7.519253910024596E+09,
2458845.500000000, A.D. 2019-Dec-28 00:00:00.0000,  2.345366762056919E-01,  4.459341514610316E+09,  1.577518115192399E+01,  1.101049368082468E+02,  1.134298587544759E+02, -9.714312157495573E+08,  4.694171250507441E-08,  4.560064484817065E+01,  6.900964317537240E+01,  5.825676261673656E+09,  7.192011008736997E+09,  7.669085356889865E+09,
2458846.500000000, A.D. 2019-Dec-29 00:00:00.0000,  2.394631110302131E-01,  4.500029901415010E+09,  1.579765010782163E+01,  1.101084591546098E+02,  1.166644687124101E+02, -9.303498538749088E+08,  4.586018221301772E-08,  4.266601382055769E+01,  6.577684833425191E+01,  5.916912074456625E+09,  7.333794247498240E+09,  7.849947004741984E+09,
2458847.500000000, A.D. 2019-Dec-30 00:00:00.0000,  2.460914967612893E-01,  4.536787757410675E+09,  1.589158557206133E+01,  1.101231026345154E+02,  1.197984911604060E+02, -8.889493890950074E+08,  4.471299061866254E-08,  3.974758569507085E+01,  6.263397828803259E+01,  6.017690128074052E+09,  7.498592498737429E+09,  8.051351408593577E+09,
2458848.500000000, A.D. 2019-Dec-31 00:00:00.0000,  2.533576627529908E-01,  4.564370551785036E+09,  1.604991468538489E+01,  1.101474578766402E+02,  1.223413390876473E+02, -8.540301015502337E+08,  4.366927942879168E-08,  3.729487914519650E+01,  6.007298802618465E+01,  6.113195467343315E+09,  7.662020382901594E+09,  8.243781548697771E+09,
2458849.500000000, A.D. 2020-Jan-01 00:00:00.0000,  2.608602230218361E-01,  4.582746915630652E+09,  1.627772354370115E+01,  1.101817647754681E+02,  1.242439609617697E+02, -8.266382470627915E+08,  4.275427050216950E-08,  3.534231522236180E+01,  5.814271692281824E+01,  6.200108637592694E+09,  7.817470359554736E+09,  8.420211496340053E+09,
2458850.500000000, A.D. 2020-Jan-02 00:00:00.0000,  2.681326764858345E-01,  4.592842774302370E+09,  1.656277204163278E+01,  1.102234888008691E+02,  1.255330287826770E+02, -8.068362263099335E+08,  4.198601120882305E-08,  3.387583484153334E+01,  5.681895198360509E+01,  6.275512824167609E+09,  7.958182874032848E+09,  8.574284377944163E+09,
2458851.500000000, A.D. 2020-Jan-03 00:00:00.0000,  2.745189433526802E-01,  4.595102025865469E+09,  1.688273328062277E+01,  1.102687916160379E+02,  1.262025041970576E+02, -7.950671788749229E+08,  4.140710112322688E-08,  3.292142707543264E+01,  5.611143266419975E+01,  6.333869070408132E+09,  8.072636114950794E+09,  8.694160910435282E+09,
2458852.500000000, A.D. 2020-Jan-04 00:00:00.0000,  2.793578544672313E-01,  4.589851826687590E+09,  1.721079275759069E+01,  1.103136437078700E+02,  1.262479757476009E+02, -7.916672476179377E+08,  4.106387577745366E-08,  3.250892551326164E+01,  5.602843333524859E+01,  6.369113789888495E+09,  8.148375753089401E+09,  8.766829559660316E+09,
2458853.500000000, A.D. 2020-Jan-05 00:00:00.0000,  2.821642600146355E-01,  4.577286175441678E+09,  1.752312331614456E+01,  1.103549265689666E+02,  1.256706291328351E+02, -7.967638686190526E+08,  4.099245863179625E-08,  3.266130992367645E+01,  5.657173553170173E+01,  6.376509165641434E+09,  8.175732155841189E+09,  8.782103148132767E+09,
2458854.500000000, A.D. 2020-Jan-06 00:00:00.0000,  2.827226628317191E-01,  4.557122330719050E+09,  1.780600835342229E+01,  1.103911915004253E+02,  1.244550600526915E+02, -8.105244579508268E+08,  4.121668726673115E-08,  3.340713310539599E+01,  5.775809988007969E+01,  6.353361656050623E+09,  8.149600981382195E+09,  8.734326406930355E+09,
2458855.500000000, A.D. 2020-Jan-07 00:00:00.0000,  2.813051626822182E-01,  4.529135942393728E+09,  1.806008773327633E+01,  1.104229019506116E+02,  1.226184120231105E+02, -8.324660608212776E+08,  4.172268056182356E-08,  3.473271553420576E+01,  5.956991296630184E+01,  6.301890186517511E+09,  8.074644430641294E+09,  8.628400552226303E+09,
2458856.500000000, A.D. 2020-Jan-08 00:00:00.0000,  2.786630091398513E-01,  4.496925985763751E+09,  1.826432529937591E+01,  1.104478321939295E+02,  1.204418893111296E+02, -8.588345676805226E+08,  4.240451943156790E-08,  3.641846711371093E+01,  6.172806004402950E+01,  6.234154137030253E+09,  7.971382288296756E+09,  8.489661121639768E+09,
2458857.500000000, A.D. 2020-Jan-09 00:00:00.0000,  2.748025038158039E-01,  4.462215189035271E+09,  1.838424725602877E+01,  1.104622550389555E+02,  1.180163435612066E+02, -8.886068578099480E+08,  4.324512215394290E-08,  3.842791211282256E+01,  6.414520023792002E+01,  6.153103413227854E+09,  7.843991637420437E+09,  8.324638296048304E+09,
2458858.500000000, A.D. 2020-Jan-10 00:00:00.0000,  2.699105116197867E-01,  4.424670046288503E+09,  1.841803884852508E+01,  1.104662947321417E+02,  1.153177089277967E+02, -9.219659058180543E+08,  4.424062538115744E-08,  4.078834825349605E+01,  6.684525698007285E+01,  6.060448913057408E+09,  7.696227779826314E+09,  8.137317158118834E+09,
2458859.500000000, A.D. 2020-Jan-11 00:00:00.0000,  2.644707253706730E-01,  4.385686234748733E+09,  1.836874919771281E+01,  1.104603782063660E+02,  1.124539713580199E+02, -9.574234858066492E+08,  4.533379296480966E-08,  4.340363808520500E+01,  6.971983034202778E+01,  5.962626350880345E+09,  7.539566467011958E+09,  7.941095956375189E+09,
2458860.500000000, A.D. 2020-Jan-12 00:00:00.0000,  2.589835059098006E-01,  4.348197695542534E+09,  1.824181512428607E+01,  1.104449657662704E+02,  1.096333193940112E+02, -9.924012011594996E+08,  4.643616434723658E-08,  4.608330527543751E+01,  7.256030196690359E+01,  5.867882469851278E+09,  7.387567244160023E+09,  7.752578298845298E+09,
2458861.500000000, A.D. 2020-Jan-13 00:00:00.0000,  2.537867170079970E-01,  4.315936855472285E+09,  1.804590956924820E+01,  1.104207115354040E+02,  1.071051309527042E+02, -1.024039577432495E+09,  4.745263020599853E-08,  4.859337138421116E+01,  7.511669369033511E+01,  5.783784547719634E+09,  7.251632239966983E+09,  7.586513085516851E+09,
2458862.500000000, A.D. 2020-Jan-14 00:00:00.0000,  2.489640542582871E-01,  4.292397099793261E+09,  1.778962464760474E+01,  1.103881272757353E+02,  1.050866382555283E+02, -1.050067117565251E+09,  4.830807096445240E-08,  5.072671683278014E+01,  7.717131811594369E+01,  5.715301809627964E+09,  7.138206519462667E+09,  7.452170885997637E+09,
2458863.500000000, A.D. 2020-Jan-15 00:00:00.0000,  2.443557430394679E-01,  4.279789551353797E+09,  1.747576211074462E+01,  1.103468691920843E+02,  1.036969340471110E+02, -1.069467363307107E+09,  4.896896300764247E-08,  5.237070775166666E+01,  7.860544928397523E+01,  5.663762427797202E+09,  7.047735304240606E+09,  7.351595334861710E+09,
2458864.500000000, A.D. 2020-Jan-16 00:00:00.0000,  2.398868742539809E-01,  4.277360601399398E+09,  1.712140801746317E+01,  1.102984207213019E+02,  1.028978102262807E+02, -1.082726653836212E+09,  4.944609515696863E-08,  5.353660515457156E+01,  7.945592355690655E+01,  5.627268437446529E+09,  6.977176273493661E+09,  7.280655810275117E+09,
